start=new Date('2023-01-09T00:00:00.000Z').valueOf();
sats=[{"MEAN_MOTION":"15.01258512","OBJECT_TYPE":"PAYLOAD","MEAN_MOTION_DOT":"0.00002191","ARG_OF_PERICENTER":"101.7290","APOAPSIS":"563.965","NORAD_CAT_ID":"53060","SITE":"AFWTR","PERIAPSIS":"562.068","TIME_SYSTEM":"UTC","REF_FRAME":"TEME","COUNTRY_CODE":"US","MEAN_MOTION_DDOT":"0.0000000000000","CENTER_NAME":"EARTH","RA_OF_ASC_NODE":"191.8851","RCS_SIZE":"LARGE","MEAN_ELEMENT_THEORY":"SGP4","CLASSIFICATION_TYPE":"U","DECAY_DATE":null,"SEMIMAJOR_AXIS":"6941.151","TLE_LINE2":"2 53060  97.6553 191.8851 0001366 101.7290 258.4087 15.01258512 27452","LAUNCH_DATE":"2022-07-11","PERIOD":"95.920","ECCENTRICITY":"0.00013660","BSTAR":"0.00017512000000","OBJECT_NAME":"STARLINK-4305","GP_ID":"222470116","FILE":"3736235","ELEMENT_SET_NO":"999","OBJECT_ID":"2022-077T","TLE_LINE1":"1 53060U 22077T   23008.53519863  .00002191  00000-0  17512-3 0  9997","MEAN_ANOMALY":"258.4087","EPHEMERIS_TYPE":"0","EPOCH":"2023-01-08T12:50:41.161632","INCLINATION":"97.6553","REV_AT_EPOCH":"2745"},{"EPOCH":"2023-01-08T06:16:05.854368","REV_AT_EPOCH":"2741","INCLINATION":"97.6553","ELEMENT_SET_NO":"999","OBJECT_ID":"2022-077U","TLE_LINE1":"1 53061U 22077U   23008.26117887  .00001611  00000-0  12992-3 0  9991","MEAN_ANOMALY":"26.4159","EPHEMERIS_TYPE":"0","ECCENTRICITY":"0.00004280","PERIOD":"95.919","TLE_LINE2":"2 53061  97.6553 191.6138 0000428 333.7043  26.4159 15.01271263 27417","LAUNCH_DATE":"2022-07-11","GP_ID":"222468510","OBJECT_NAME":"STARLINK-4308","FILE":"3736235","BSTAR":"0.00012992000000","RCS_SIZE":"LARGE","RA_OF_ASC_NODE":"191.6138","MEAN_MOTION_DDOT":"0.0000000000000","CENTER_NAME":"EARTH","MEAN_ELEMENT_THEORY":"SGP4","CLASSIFICATION_TYPE":"U","SEMIMAJOR_AXIS":"6941.112","DECAY_DATE":null,"COUNTRY_CODE":"US","TIME_SYSTEM":"UTC","PERIAPSIS":"562.680","REF_FRAME":"TEME","ARG_OF_PERICENTER":"333.7043","MEAN_MOTION_DOT":"0.00001611","OBJECT_TYPE":"PAYLOAD","NORAD_CAT_ID":"53061","APOAPSIS":"563.274","SITE":"AFWTR","MEAN_MOTION":"15.01271263"},{"TLE_LINE1":"1 53062U 22077V   23008.26488191  .00002290  00000-0  18282-3 0  9993","ELEMENT_SET_NO":"999","OBJECT_ID":"2022-077V","EPHEMERIS_TYPE":"0","MEAN_ANOMALY":"296.9966","EPOCH":"2023-01-08T06:21:25.797024","REV_AT_EPOCH":"2741","INCLINATION":"97.6576","RCS_SIZE":"LARGE","RA_OF_ASC_NODE":"191.6191","MEAN_MOTION_DDOT":"0.0000000000000","CENTER_NAME":"EARTH","SEMIMAJOR_AXIS":"6941.157","DECAY_DATE":null,"MEAN_ELEMENT_THEORY":"SGP4","CLASSIFICATION_TYPE":"U","ECCENTRICITY":"0.00014480","PERIOD":"95.920","TLE_LINE2":"2 53062  97.6576 191.6191 0001448  63.1406 296.9966 15.01256671 27418","LAUNCH_DATE":"2022-07-11","GP_ID":"222468739","FILE":"3736235","OBJECT_NAME":"STARLINK-4311","BSTAR":"0.00018282000000","TIME_SYSTEM":"UTC","PERIAPSIS":"562.017","REF_FRAME":"TEME","COUNTRY_CODE":"US","MEAN_MOTION":"15.01256671","NORAD_CAT_ID":"53062","APOAPSIS":"564.027","ARG_OF_PERICENTER":"63.1406","OBJECT_TYPE":"PAYLOAD","MEAN_MOTION_DOT":"0.00002290","SITE":"AFWTR"},{"BSTAR":"0.00000161690000","GP_ID":"222500932","FILE":"3736460","OBJECT_NAME":"STARLINK-4307","LAUNCH_DATE":"2022-07-11","TLE_LINE2":"2 53063  97.6528 192.1843 0003155 145.9659 214.1768 15.00444727 27504","PERIOD":"95.972","ECCENTRICITY":"0.00031550","CLASSIFICATION_TYPE":"U","MEAN_ELEMENT_THEORY":"SGP4","SEMIMAJOR_AXIS":"6943.661","DECAY_DATE":null,"MEAN_MOTION_DDOT":"0.0000000000000","CENTER_NAME":"EARTH","RCS_SIZE":"LARGE","RA_OF_ASC_NODE":"192.1843","INCLINATION":"97.6528","REV_AT_EPOCH":"2750","EPOCH":"2023-01-08T19:41:48.701184","MEAN_ANOMALY":"214.1768","EPHEMERIS_TYPE":"0","ELEMENT_SET_NO":"999","OBJECT_ID":"2022-077W","TLE_LINE1":"1 53063U 22077W   23008.82070256 -.00000038  00000-0  16169-5 0  9998","SITE":"AFWTR","OBJECT_TYPE":"PAYLOAD","MEAN_MOTION_DOT":"-0.00000038","ARG_OF_PERICENTER":"145.9659","APOAPSIS":"567.717","NORAD_CAT_ID":"53063","MEAN_MOTION":"15.00444727","COUNTRY_CODE":"US","REF_FRAME":"TEME","PERIAPSIS":"563.335","TIME_SYSTEM":"UTC"},{"ELEMENT_SET_NO":"999","OBJECT_ID":"2022-077X","TLE_LINE1":"1 53064U 22077X   23008.46298917  .00003115  00000-0  24700-3 0  9991","MEAN_ANOMALY":"316.0440","EPHEMERIS_TYPE":"0","EPOCH":"2023-01-08T11:06:42.264288","REV_AT_EPOCH":"2744","INCLINATION":"97.6550","RCS_SIZE":"LARGE","RA_OF_ASC_NODE":"191.8111","MEAN_MOTION_DDOT":"0.0000000000000","CENTER_NAME":"EARTH","CLASSIFICATION_TYPE":"U","MEAN_ELEMENT_THEORY":"SGP4","DECAY_DATE":null,"SEMIMAJOR_AXIS":"6941.135","ECCENTRICITY":"0.00012820","PERIOD":"95.919","TLE_LINE2":"2 53064  97.6550 191.8111 0001282  44.0886 316.0440 15.01263835 27446","LAUNCH_DATE":"2022-07-11","FILE":"3736235","GP_ID":"222469658","OBJECT_NAME":"STARLINK-4313","BSTAR":"0.00024700000000","TIME_SYSTEM":"UTC","PERIAPSIS":"562.110","REF_FRAME":"TEME","COUNTRY_CODE":"US","MEAN_MOTION":"15.01263835","ARG_OF_PERICENTER":"44.0886","OBJECT_TYPE":"PAYLOAD","MEAN_MOTION_DOT":"0.00003115","NORAD_CAT_ID":"53064","APOAPSIS":"563.890","SITE":"AFWTR"},{"COUNTRY_CODE":"US","REF_FRAME":"TEME","TIME_SYSTEM":"UTC","PERIAPSIS":"561.403","SITE":"AFWTR","NORAD_CAT_ID":"53065","APOAPSIS":"564.493","ARG_OF_PERICENTER":"15.5062","OBJECT_TYPE":"PAYLOAD","MEAN_MOTION_DOT":"0.00011981","MEAN_MOTION":"15.01280683","REV_AT_EPOCH":"2803","INCLINATION":"97.6595","EPOCH":"2023-01-08T12:34:41.432160","EPHEMERIS_TYPE":"0","MEAN_ANOMALY":"344.6230","TLE_LINE1":"1 53065U 22077Y   23008.52409065  .00011981  00000-0  93524-3 0  9997","ELEMENT_SET_NO":"999","OBJECT_ID":"2022-077Y","FILE":"3736276","GP_ID":"222471240","OBJECT_NAME":"STARLINK-4312","BSTAR":"0.00093524000000","PERIOD":"95.918","ECCENTRICITY":"0.00022260","LAUNCH_DATE":"2022-07-11","TLE_LINE2":"2 53065  97.6595 191.8812 0002226  15.5062 344.6230 15.01280683 28032","SEMIMAJOR_AXIS":"6941.083","DECAY_DATE":null,"CLASSIFICATION_TYPE":"U","MEAN_ELEMENT_THEORY":"SGP4","RA_OF_ASC_NODE":"191.8812","RCS_SIZE":"LARGE","MEAN_MOTION_DDOT":"0.0000000000000","CENTER_NAME":"EARTH"},{"EPHEMERIS_TYPE":"0","MEAN_ANOMALY":"328.8324","TLE_LINE1":"1 53066U 22077Z   23008.52595400  .00007406  00000-0  58098-3 0  9991","ELEMENT_SET_NO":"999","OBJECT_ID":"2022-077Z","REV_AT_EPOCH":"2803","INCLINATION":"97.6584","EPOCH":"2023-01-08T12:37:22.425600","DECAY_DATE":null,"SEMIMAJOR_AXIS":"6941.222","MEAN_ELEMENT_THEORY":"SGP4","CLASSIFICATION_TYPE":"U","RCS_SIZE":"LARGE","RA_OF_ASC_NODE":"191.8777","MEAN_MOTION_DDOT":"0.0000000000000","CENTER_NAME":"EARTH","GP_ID":"222471916","FILE":"3736288","OBJECT_NAME":"STARLINK-4309","BSTAR":"0.00058098000000","ECCENTRICITY":"0.00019580","PERIOD":"95.921","LAUNCH_DATE":"2022-07-11","TLE_LINE2":"2 53066  97.6584 191.8777 0001958  31.3016 328.8324 15.01235778 28030","REF_FRAME":"TEME","TIME_SYSTEM":"UTC","PERIAPSIS":"561.727","COUNTRY_CODE":"US","MEAN_MOTION":"15.01235778","SITE":"AFWTR","NORAD_CAT_ID":"53066","APOAPSIS":"564.446","ARG_OF_PERICENTER":"31.3016","OBJECT_TYPE":"PAYLOAD","MEAN_MOTION_DOT":"0.00007406"},{"ARG_OF_PERICENTER":"20.0851","OBJECT_TYPE":"PAYLOAD","MEAN_MOTION_DOT":"0.00002354","NORAD_CAT_ID":"53067","APOAPSIS":"564.739","SITE":"AFWTR","MEAN_MOTION":"15.01261194","COUNTRY_CODE":"US","TIME_SYSTEM":"UTC","PERIAPSIS":"561.278","REF_FRAME":"TEME","PERIOD":"95.919","ECCENTRICITY":"0.00024930","LAUNCH_DATE":"2022-07-11","TLE_LINE2":"2 53067  97.6592 192.1493 0002493  20.0851 340.0471 15.01261194 27495","FILE":"3736460","GP_ID":"222500474","OBJECT_NAME":"STARLINK-4306","BSTAR":"0.00018778000000","RCS_SIZE":"LARGE","RA_OF_ASC_NODE":"192.1493","MEAN_MOTION_DDOT":"0.0000000000000","CENTER_NAME":"EARTH","CLASSIFICATION_TYPE":"U","MEAN_ELEMENT_THEORY":"SGP4","SEMIMAJOR_AXIS":"6941.143","DECAY_DATE":null,"EPOCH":"2023-01-08T18:53:16.430208","REV_AT_EPOCH":"2749","INCLINATION":"97.6592","ELEMENT_SET_NO":"999","OBJECT_ID":"2022-077AA","TLE_LINE1":"1 53067U 22077AA  23008.78699572  .00002354  00000-0  18778-3 0  9993","MEAN_ANOMALY":"340.0471","EPHEMERIS_TYPE":"0"},{"MEAN_MOTION":"15.01261878","MEAN_MOTION_DOT":"0.00001946","OBJECT_TYPE":"PAYLOAD","ARG_OF_PERICENTER":"5.0860","APOAPSIS":"564.560","NORAD_CAT_ID":"53068","SITE":"AFWTR","PERIAPSIS":"561.452","TIME_SYSTEM":"UTC","REF_FRAME":"TEME","COUNTRY_CODE":"US","MEAN_MOTION_DDOT":"0.0000000000000","CENTER_NAME":"EARTH","RA_OF_ASC_NODE":"192.1476","RCS_SIZE":"LARGE","CLASSIFICATION_TYPE":"U","MEAN_ELEMENT_THEORY":"SGP4","SEMIMAJOR_AXIS":"6941.141","DECAY_DATE":null,"TLE_LINE2":"2 53068  97.6603 192.1476 0002239   5.0860 355.0387 15.01261878 27492","LAUNCH_DATE":"2022-07-11","ECCENTRICITY":"0.00022390","PERIOD":"95.919","BSTAR":"0.00015604000000","OBJECT_NAME":"STARLINK-4325","GP_ID":"222501621","FILE":"3736460","ELEMENT_SET_NO":"999","OBJECT_ID":"2022-077AB","TLE_LINE1":"1 53068U 22077AB  23008.78908801  .00001946  00000-0  15604-3 0  9993","MEAN_ANOMALY":"355.0387","EPHEMERIS_TYPE":"0","EPOCH":"2023-01-08T18:56:17.204064","INCLINATION":"97.6603","REV_AT_EPOCH":"2749"},{"REF_FRAME":"TEME","TIME_SYSTEM":"UTC","PERIAPSIS":"560.917","COUNTRY_CODE":"US","MEAN_MOTION":"15.01260762","SITE":"AFWTR","NORAD_CAT_ID":"53069","APOAPSIS":"565.102","ARG_OF_PERICENTER":"16.0511","MEAN_MOTION_DOT":"0.00003677","OBJECT_TYPE":"PAYLOAD","EPHEMERIS_TYPE":"0","MEAN_ANOMALY":"344.0808","TLE_LINE1":"1 53069U 22077AC  23008.78329211  .00003677  00000-0  29068-3 0  9998","ELEMENT_SET_NO":"999","OBJECT_ID":"2022-077AC","REV_AT_EPOCH":"2749","INCLINATION":"97.6573","EPOCH":"2023-01-08T18:47:56.438304","DECAY_DATE":null,"SEMIMAJOR_AXIS":"6941.144","CLASSIFICATION_TYPE":"U","MEAN_ELEMENT_THEORY":"SGP4","RCS_SIZE":"LARGE","RA_OF_ASC_NODE":"192.1540","CENTER_NAME":"EARTH","MEAN_MOTION_DDOT":"0.0000000000000","GP_ID":"222501850","FILE":"3736460","OBJECT_NAME":"STARLINK-4323","BSTAR":"0.00029068000000","PERIOD":"95.919","ECCENTRICITY":"0.00030140","LAUNCH_DATE":"2022-07-11","TLE_LINE2":"2 53069  97.6573 192.1540 0003014  16.0511 344.0808 15.01260762 27495"}];
